{
  "norad_id": 66983,
  "name": "STARLINK-36145",
  "history": [
    {
      "epoch": "2026-03-28T13:44:32.360064Z",
      "apogee_km": 483.77034518983055,
      "perigee_km": 482.09624403794624,
      "latitude_deg": 4.979627225271997e-05,
      "longitude_deg": -115.17379341812077,
      "height_km": 482.77467066724455,
      "semi_major_axis_km": 6861.070294613888,
      "eccentricity": 0.000122,
      "inclination_deg": 43.0023,
      "raan_deg": 276.9521,
      "arg_perigee_deg": 265.5744,
      "mean_anomaly_deg": 94.4969,
      "mean_motion_rev_day": 15.27618674
    },
    {
      "epoch": "2026-03-28T23:09:28.058976Z",
      "apogee_km": 485.05613476278995,
      "perigee_km": 480.8804660769547,
      "latitude_deg": -2.290027870470636e-05,
      "longitude_deg": 100.99237041892509,
      "height_km": 482.9283228739262,
      "semi_major_axis_km": 6861.105300419872,
      "eccentricity": 0.0003043,
      "inclination_deg": 43.0048,
      "raan_deg": 274.7371,
      "arg_perigee_deg": 265.0089,
      "mean_anomaly_deg": 95.0415,
      "mean_motion_rev_day": 15.27606983
    }
  ]
}